{
  "type": "FeatureCollection",
  "features": [
    {
      "type": "Feature",
      "properties": {
        "norad_id": 59626,
        "name": "LEGION 2",
        "group": "resource",
        "lat": -81.87335696552039,
        "lon": 128.91980600916222,
        "alt_km": 520.1286163587856,
        "timestamp": "2025-12-12T11:38:31.074144+00:00",
        "meta_object_name": "LEGION 2",
        "meta_object_id": "2024-081B",
        "meta_epoch": "2025-12-12T04:06:23.128128",
        "meta_mean_motion": 15.16482945,
        "meta_eccentricity": 0.0005775,
        "meta_inclination": 97.5213,
        "meta_ra_of_asc_node": 60.9014,
        "meta_arg_of_pericenter": 295.8229,
        "meta_mean_anomaly": 64.2407,
        "meta_ephemeris_type": 0,
        "meta_classification_type": "U",
        "meta_norad_cat_id": 59626,
        "meta_element_set_no": 999,
        "meta_rev_at_epoch": 8919,
        "meta_bstar": 0.00042868,
        "meta_mean_motion_dot": 8.286e-05,
        "meta_mean_motion_ddot": 0,
        "tle_line1": "1 59626U 24081B   25346.17110102  .00008286  00000+0  42868-3 0  9990",
        "tle_line2": "2 59626  97.5213  60.9014 0005775 295.8229  64.2407 15.16482945 89193"
      },
      "geometry": {
        "type": "Point",
        "coordinates": [
          128.91980600916222,
          -81.87335696552039
        ]
      }
    },
    {
      "type": "Feature",
      "properties": {
        "norad_id": 60182,
        "name": "ALOS-4 (DAICHI-4)",
        "group": "resource",
        "lat": -35.49188720207873,
        "lon": 87.03440617722711,
        "alt_km": 637.9125353422742,
        "timestamp": "2025-12-12T11:38:31.074154+00:00",
        "meta_object_name": "ALOS-4 (DAICHI-4)",
        "meta_object_id": "2024-123A",
        "meta_epoch": "2025-12-10T20:50:51.532800",
        "meta_mean_motion": 14.79478132,
        "meta_eccentricity": 0.0001419,
        "meta_inclination": 97.9225,
        "meta_ra_of_asc_node": 79.7424,
        "meta_arg_of_pericenter": 101.2045,
        "meta_mean_anomaly": 258.9326,
        "meta_ephemeris_type": 0,
        "meta_classification_type": "U",
        "meta_norad_cat_id": 60182,
        "meta_element_set_no": 999,
        "meta_rev_at_epoch": 7803,
        "meta_bstar": 0.00039567,
        "meta_mean_motion_dot": 2.905e-05,
        "meta_mean_motion_ddot": 0,
        "tle_line1": "1 60182U 24123A   25344.86865200  .00002905  00000+0  39567-3 0  9990",
        "tle_line2": "2 60182  97.9225  79.7424 0001419 101.2045 258.9326 14.79478132 78033"
      },
      "geometry": {
        "type": "Point",
        "coordinates": [
          87.03440617722711,
          -35.49188720207873
        ]
      }
    },
    {
      "type": "Feature",
      "properties": {
        "norad_id": 60452,
        "name": "LEGION 3",
        "group": "resource",
        "lat": -27.103643228534217,
        "lon": -79.3085069915952,
        "alt_km": 526.9005169076063,
        "timestamp": "2025-12-12T11:38:31.074164+00:00",
        "meta_object_name": "LEGION 3",
        "meta_object_id": "2024-146A",
        "meta_epoch": "2025-12-12T02:19:42.411360",
        "meta_mean_motion": 15.15750179,
        "meta_eccentricity": 0.0014807,
        "meta_inclination": 45.0017,
        "meta_ra_of_asc_node": 313.5787,
        "meta_arg_of_pericenter": 195.2439,
        "meta_mean_anomaly": 164.7995,
        "meta_ephemeris_type": 0,
        "meta_classification_type": "U",
        "meta_norad_cat_id": 60452,
        "meta_element_set_no": 999,
        "meta_rev_at_epoch": 7363,
        "meta_bstar": 0.00041637,
        "meta_mean_motion_dot": 7.839e-05,
        "meta_mean_motion_ddot": 0,
        "tle_line1": "1 60452U 24146A   25346.09701865  .00007839  00000+0  41637-3 0  9990",
        "tle_line2": "2 60452  45.0017 313.5787 0014807 195.2439 164.7995 15.15750179 73634"
      },
      "geometry": {
        "type": "Point",
        "coordinates": [
          -79.3085069915952,
          -27.103643228534217
        ]
      }
    },
    {
      "type": "Feature",
      "properties": {
        "norad_id": 60453,
        "name": "LEGION 4",
        "group": "resource",
        "lat": -29.145914741056405,
        "lon": 9.379187589966824,
        "alt_km": 514.8522886842875,
        "timestamp": "2025-12-12T11:38:31.074175+00:00",
        "meta_object_name": "LEGION 4",
        "meta_object_id": "2024-146B",
        "meta_epoch": "2025-12-12T03:55:28.604064",
        "meta_mean_motion": 15.15814619,
        "meta_eccentricity": 0.0009531,
        "meta_inclination": 45.0388,
        "meta_ra_of_asc_node": 44.9704,
        "meta_arg_of_pericenter": 308.059,
        "meta_mean_anomaly": 51.9428,
        "meta_ephemeris_type": 0,
        "meta_classification_type": "U",
        "meta_norad_cat_id": 60453,
        "meta_element_set_no": 999,
        "meta_rev_at_epoch": 7249,
        "meta_bstar": 0.00042269,
        "meta_mean_motion_dot": 7.965e-05,
        "meta_mean_motion_ddot": 0,
        "tle_line1": "1 60453U 24146B   25346.16352551  .00007965  00000+0  42269-3 0  9995",
        "tle_line2": "2 60453  45.0388  44.9704 0009531 308.0590  51.9428 15.15814619 72491"
      },
      "geometry": {
        "type": "Point",
        "coordinates": [
          9.379187589966824,
          -29.145914741056405
        ]
      }
    },
    {
      "type": "Feature",
      "properties": {
        "norad_id": 60989,
        "name": "SENTINEL-2C",
        "group": "resource",
        "lat": 46.66803217393463,
        "lon": -111.8327629268973,
        "alt_km": 784.1747237109621,
        "timestamp": "2025-12-12T11:38:31.074185+00:00",
        "meta_object_name": "SENTINEL-2C",
        "meta_object_id": "2024-157A",
        "meta_epoch": "2025-12-12T04:18:40.680864",
        "meta_mean_motion": 14.30817207,
        "meta_eccentricity": 0.0001199,
        "meta_inclination": 98.5683,
        "meta_ra_of_asc_node": 58.6703,
        "meta_arg_of_pericenter": 97.3608,
        "meta_mean_anomaly": 262.7711,
        "meta_ephemeris_type": 0,
        "meta_classification_type": "U",
        "meta_norad_cat_id": 60989,
        "meta_element_set_no": 999,
        "meta_rev_at_epoch": 6624,
        "meta_bstar": 0.0001042,
        "meta_mean_motion_dot": 2.3e-06,
        "meta_mean_motion_ddot": 0,
        "tle_line1": "1 60989U 24157A   25346.17963751  .00000230  00000+0  10420-3 0  9994",
        "tle_line2": "2 60989  98.5683  58.6703 0001199  97.3608 262.7711 14.30817207 66242"
      },
      "geometry": {
        "type": "Point",
        "coordinates": [
          -111.8327629268973,
          46.66803217393463
        ]
      }
    },
    {
      "type": "Feature",
      "properties": {
        "norad_id": 61735,
        "name": "IONOSFERA-M 1",
        "group": "resource",
        "lat": 45.58510658077112,
        "lon": -152.6986504777395,
        "alt_km": 811.5503276889103,
        "timestamp": "2025-12-12T11:38:31.074197+00:00",
        "meta_object_name": "IONOSFERA-M 1",
        "meta_object_id": "2024-199A",
        "meta_epoch": "2025-12-12T04:40:25.523040",
        "meta_mean_motion": 14.22713855,
        "meta_eccentricity": 9.95e-05,
        "meta_inclination": 98.7404,
        "meta_ra_of_asc_node": 216.0471,
        "meta_arg_of_pericenter": 23.0252,
        "meta_mean_anomaly": 337.0971,
        "meta_ephemeris_type": 0,
        "meta_classification_type": "U",
        "meta_norad_cat_id": 61735,
        "meta_element_set_no": 999,
        "meta_rev_at_epoch": 10111,
        "meta_bstar": 6.5418e-05,
        "meta_mean_motion_dot": 1.02e-06,
        "meta_mean_motion_ddot": 0,
        "tle_line1": "1 61735U 24199A   25346.19473985  .00000102  00000+0  65418-4 0  9993",
        "tle_line2": "2 61735  98.7404 216.0471 0000995  23.0252 337.0971 14.22713855101116"
      },
      "geometry": {
        "type": "Point",
        "coordinates": [
          -152.6986504777395,
          45.58510658077112
        ]
      }
    },
    {
      "type": "Feature",
      "properties": {
        "norad_id": 61736,
        "name": "IONOSFERA-M 2",
        "group": "resource",
        "lat": -48.34565295693124,
        "lon": 26.28875443944455,
        "alt_km": 823.5418689989692,
        "timestamp": "2025-12-12T11:38:31.074221+00:00",
        "meta_object_name": "IONOSFERA-M 2",
        "meta_object_id": "2024-199B",
        "meta_epoch": "2025-12-12T05:30:19.016928",
        "meta_mean_motion": 14.22716057,
        "meta_eccentricity": 0.000163,
        "meta_inclination": 98.7402,
        "meta_ra_of_asc_node": 215.994,
        "meta_arg_of_pericenter": 111.3931,
        "meta_mean_anomaly": 248.7421,
        "meta_ephemeris_type": 0,
        "meta_classification_type": "U",
        "meta_norad_cat_id": 61736,
        "meta_element_set_no": 999,
        "meta_rev_at_epoch": 10424,
        "meta_bstar": 7.0301e-05,
        "meta_mean_motion_dot": 1.13e-06,
        "meta_mean_motion_ddot": 0,
        "tle_line1": "1 61736U 24199B   25346.22938677  .00000113  00000+0  70301-4 0  9991",
        "tle_line2": "2 61736  98.7402 215.9940 0001630 111.3931 248.7421 14.22716057104248"
      },
      "geometry": {
        "type": "Point",
        "coordinates": [
          26.28875443944455,
          -48.34565295693124
        ]
      }
    }
  ]
}